{
"type": "FeatureCollection",
"name": "boundary",
"crs": { "type": "name", "properties": { "name": "urn:ogc:def:crs:OGC:1.3:CRS84" } },
"features": [
{ "type": "Feature", "properties": { "sgg_nm": "성북구" }, "geometry": { "type": "Polygon", "coordinates": [ [ [ 127.017604519423685, 37.579688801442963 ], [ 127.016786330954702, 37.581536621482641 ], [ 127.016390069873921, 37.581842582963503 ], [ 127.016067301679158, 37.58184013347185 ], [ 127.014950497609675, 37.582130731360863 ], [ 127.01468588256526, 37.582226547396814 ], [ 127.013827789841656, 37.581708122554396 ], [ 127.013122384160866, 37.581439318116963 ], [ 127.012801222611159, 37.581317483076205 ], [ 127.012155023326585, 37.581505178445497 ], [ 127.010480067576736, 37.58033548116682 ], [ 127.009965430825829, 37.580208356230678 ], [ 127.008841321254579, 37.580452636044896 ], [ 127.007332538498744, 37.583203339211337 ], [ 127.007354940177137, 37.58336334037957 ], [ 127.00714992970515, 37.584058945029213 ], [ 127.006527492665526, 37.586128221208433 ], [ 127.005933353184076, 37.586909905755469 ], [ 127.005735668010246, 37.586936118471719 ], [ 127.005608612076955, 37.586952486579982 ], [ 127.005540833033692, 37.586961216115199 ], [ 127.005124684225066, 37.586945951935 ], [ 127.004703208919508, 37.586985871297578 ], [ 127.004609215982384, 37.586995229399143 ], [ 127.004299746154146, 37.587086705562562 ], [ 127.004163894455161, 37.587290064179768 ], [ 127.004183557327394, 37.5877135443694 ], [ 127.004186195024715, 37.587770105804537 ], [ 127.004194818749667, 37.587950483037126 ], [ 127.003419878304982, 37.588355029621432 ], [ 127.002430490804727, 37.589057291634731 ], [ 127.002385631362557, 37.589103999462665 ], [ 127.002337817645895, 37.589153795441163 ], [ 127.001658250707791, 37.590101846306112 ], [ 127.001698104202134, 37.590602260504717 ], [ 127.001786990885762, 37.590861772125066 ], [ 127.001911841925462, 37.591248750271532 ], [ 127.001681225759512, 37.591752529412915 ], [ 127.001581288554888, 37.591889634478697 ], [ 127.001559765015756, 37.591918765152855 ], [ 127.00094219765829, 37.592392659935797 ], [ 127.000785994817008, 37.592445034431911 ], [ 127.000624524329012, 37.592453364808058 ], [ 126.99937200394055, 37.59236681171361 ], [ 126.998974156397466, 37.592471157619315 ], [ 126.998745176357374, 37.592516379255279 ], [ 126.998532152502293, 37.59250646094435 ], [ 126.989135901956757, 37.591306686313558 ], [ 126.989075052600086, 37.591394466154313 ], [ 126.989475790978631, 37.591795017589483 ], [ 126.989109449609288, 37.591953411890614 ], [ 126.988760807995234, 37.59210400397199 ], [ 126.98752622931049, 37.59224680380013 ], [ 126.986479839644915, 37.592506466561822 ], [ 126.985759276040284, 37.592794012500576 ], [ 126.985328724668335, 37.593005727111141 ], [ 126.985286807008123, 37.593026356330199 ], [ 126.985225358713834, 37.593057157638015 ], [ 126.984678766101155, 37.593331232367241 ], [ 126.984273495051895, 37.593581838249683 ], [ 126.984011582558352, 37.593755382793844 ], [ 126.983868096789081, 37.593850469022634 ], [ 126.98337258343102, 37.594351926413076 ], [ 126.982689389891277, 37.595065519437135 ], [ 126.982652314287577, 37.595104772642159 ], [ 126.982350113714844, 37.595452907150218 ], [ 126.982193422689264, 37.59563342572158 ], [ 126.982011424763812, 37.595843315926508 ], [ 126.981566843927922, 37.597165264619001 ], [ 126.981566449927016, 37.598038384073625 ], [ 126.981566563347229, 37.599143655272549 ], [ 126.982227597562598, 37.599284011785983 ], [ 126.982673690499411, 37.599378355543728 ], [ 126.982723905535238, 37.599388715738286 ], [ 126.982897372459689, 37.599392693686838 ], [ 126.984908525400598, 37.599438830843319 ], [ 126.986374684300515, 37.600079540073757 ], [ 126.987741190577651, 37.601215536661698 ], [ 126.986589279537313, 37.605125553319724 ], [ 126.986194409852672, 37.606278389753221 ], [ 126.985900602530037, 37.607136115223867 ], [ 126.985957645895681, 37.608107549457564 ], [ 126.985973727194363, 37.608376895054398 ], [ 126.985998913092175, 37.608798381532878 ], [ 126.986271483318774, 37.609938637575659 ], [ 126.986771697653396, 37.610401056550245 ], [ 126.986959659541952, 37.610574823055984 ], [ 126.987068091650144, 37.613551970465544 ], [ 126.986697031603683, 37.614683791930929 ], [ 126.985341320735017, 37.615545426492766 ], [ 126.984540402304475, 37.615871649720781 ], [ 126.98397564419156, 37.616101672935862 ], [ 126.983243292708224, 37.616319296297618 ], [ 126.982805873517705, 37.616693689152974 ], [ 126.982019192729638, 37.618712744563837 ], [ 126.981800531780252, 37.619305415378903 ], [ 126.982084496642969, 37.619922952532704 ], [ 126.981373612667696, 37.621733774320745 ], [ 126.980870061822571, 37.622752262722997 ], [ 126.980171109898521, 37.623552566430256 ], [ 126.979208687400501, 37.624571215132583 ], [ 126.979437701941393, 37.626956390519929 ], [ 126.979483502650339, 37.627160321927377 ], [ 126.979666456077339, 37.627974784344552 ], [ 126.980132976347392, 37.628351085096533 ], [ 126.980496874798249, 37.62864543327025 ], [ 126.980508193808745, 37.629054464963168 ], [ 126.980092311246409, 37.62927233414608 ], [ 126.979524034186397, 37.629202228434139 ], [ 126.978213355838136, 37.628435936114634 ], [ 126.976672060208188, 37.628844851858922 ], [ 126.976354579158425, 37.629271578481543 ], [ 126.976485543187735, 37.630088996427993 ], [ 126.975074666747588, 37.631386286507798 ], [ 126.976717088323653, 37.632625033607283 ], [ 126.978535128657157, 37.633849887353776 ], [ 126.983594784994281, 37.636454470626376 ], [ 126.983657276027444, 37.636463351894108 ], [ 126.984625384850887, 37.636564875051796 ], [ 126.984946194885339, 37.636170823640732 ], [ 126.985216795981415, 37.63586329688831 ], [ 126.985603618635295, 37.635444735861455 ], [ 126.986055959154669, 37.635195450555024 ], [ 126.991824960953892, 37.632308111362867 ], [ 126.993194307997655, 37.632027718488686 ], [ 126.993247707291673, 37.631834629000352 ], [ 126.993335915287147, 37.631515690996451 ], [ 126.994044799119166, 37.629986341828818 ], [ 126.994101818149261, 37.629919103163765 ], [ 126.994156660482616, 37.629898778782135 ], [ 126.994333309887949, 37.629833341734695 ], [ 126.994549371909372, 37.629828634151998 ], [ 126.998935939676585, 37.626878561498607 ], [ 127.00173863996433, 37.625709676545625 ], [ 127.002357722313249, 37.625595115135184 ], [ 127.002898213891029, 37.625373185420436 ], [ 127.0045014558589, 37.624438047770653 ], [ 127.006435748315809, 37.62434248259077 ], [ 127.007568856830048, 37.624029521849117 ], [ 127.007875675485067, 37.62390909407047 ], [ 127.007823603908136, 37.623319626384799 ], [ 127.007647190809507, 37.622899767655348 ], [ 127.007543279214175, 37.622653719066136 ], [ 127.007476926287424, 37.6225564850536 ], [ 127.007442268359199, 37.622505703141108 ], [ 127.007406627383816, 37.622471673012932 ], [ 127.007374714538543, 37.622441092541408 ], [ 127.007505919326292, 37.621016505353353 ], [ 127.008045827597272, 37.619369305845986 ], [ 127.00849368801704, 37.618574613001385 ], [ 127.008556830469757, 37.618563627265594 ], [ 127.009439028456157, 37.618167274343584 ], [ 127.011470229069602, 37.616419250193744 ], [ 127.014752380379662, 37.61559229236871 ], [ 127.014941183003558, 37.615418433836759 ], [ 127.015253141628165, 37.614807876616297 ], [ 127.016310963553394, 37.614960983523737 ], [ 127.017642685060721, 37.614570980259543 ], [ 127.019258330586268, 37.613752846217224 ], [ 127.019792366112071, 37.613255668578347 ], [ 127.02038097823278, 37.61261834440981 ], [ 127.020479156351541, 37.612547762765061 ], [ 127.020605399187431, 37.61251785540982 ], [ 127.020667095023271, 37.61250345922921 ], [ 127.022029545375105, 37.612287030127874 ], [ 127.022234983960999, 37.611269247006589 ], [ 127.027222805056951, 37.61256369679213 ], [ 127.029982614816248, 37.612341805465988 ], [ 127.030411146506765, 37.609138898448741 ], [ 127.037103400925844, 37.612711037859995 ], [ 127.039118559513398, 37.616308518332133 ], [ 127.040194406935555, 37.615945418659024 ], [ 127.042313761181177, 37.617473481537139 ], [ 127.043037220974952, 37.618001379709348 ], [ 127.043913602610857, 37.618641342455049 ], [ 127.043960843847032, 37.618676452006518 ], [ 127.044548124379133, 37.61934345026129 ], [ 127.044680026373513, 37.619493320521094 ], [ 127.044729000526175, 37.619549149266369 ], [ 127.047923909653392, 37.623221255106081 ], [ 127.049986245228226, 37.624430949860439 ], [ 127.05110540568019, 37.623245479280449 ], [ 127.052169736829825, 37.622094680583928 ], [ 127.052722108918388, 37.621525406619149 ], [ 127.053353260052745, 37.620901509494814 ], [ 127.053731864869718, 37.620575187280444 ], [ 127.053844714978439, 37.620478773920517 ], [ 127.053962142803428, 37.620380457897291 ], [ 127.054208191225413, 37.620174656070802 ], [ 127.056909092541929, 37.618115240610855 ], [ 127.060605995140122, 37.615651383407048 ], [ 127.060911107199914, 37.61494721882223 ], [ 127.061230672035848, 37.614771320739635 ], [ 127.061461716075712, 37.614646189949347 ], [ 127.061515707965128, 37.614617096957261 ], [ 127.06171702716459, 37.614519571484614 ], [ 127.062014260901748, 37.614375585971395 ], [ 127.062209968958982, 37.614332371744247 ], [ 127.062421978453003, 37.614285837605664 ], [ 127.062743321593913, 37.614314069004855 ], [ 127.062892576140754, 37.614343915579653 ], [ 127.064866324398935, 37.614222038618983 ], [ 127.065943728352622, 37.614281943791198 ], [ 127.066051939251281, 37.614304866315656 ], [ 127.06774836853819, 37.615221457361976 ], [ 127.068011976363223, 37.615437618157777 ], [ 127.068008570126565, 37.61553675335221 ], [ 127.068006971657226, 37.615568231390199 ], [ 127.071187058588663, 37.616368567874041 ], [ 127.07140314283437, 37.615627971713025 ], [ 127.07145873891443, 37.614280278884003 ], [ 127.071717759187337, 37.60681175155014 ], [ 127.069355213056966, 37.609331567027709 ], [ 127.068873236020693, 37.609329807234694 ], [ 127.068588262339802, 37.609322465423617 ], [ 127.068734387616331, 37.606871137762688 ], [ 127.068101148215405, 37.6065078969214 ], [ 127.066246396384258, 37.605820570978238 ], [ 127.064972939899761, 37.60587447101436 ], [ 127.062334600026702, 37.605281105088189 ], [ 127.06213995076412, 37.605136159050083 ], [ 127.06166850818515, 37.604629656445191 ], [ 127.060773365507728, 37.603569502637548 ], [ 127.060045631196431, 37.602099854508914 ], [ 127.057255964158259, 37.601252298823155 ], [ 127.052029947490084, 37.599952678487583 ], [ 127.051327383411248, 37.601626500754527 ], [ 127.051008855779074, 37.601569388038172 ], [ 127.0502734104994, 37.601105343087994 ], [ 127.048158001061012, 37.597556107042394 ], [ 127.04776693915295, 37.596660024786431 ], [ 127.047647394688383, 37.596287635814569 ], [ 127.043517430066643, 37.596906182218852 ], [ 127.040753804943009, 37.595800300529426 ], [ 127.039062752989011, 37.591270147210736 ], [ 127.036488311743867, 37.591245860195926 ], [ 127.036388680359522, 37.589923393808206 ], [ 127.031678023441756, 37.585071331944135 ], [ 127.029499044572972, 37.582724791475613 ], [ 127.02447232912462, 37.579197347784508 ], [ 127.023167883489592, 37.578041579968662 ], [ 127.022508747312315, 37.578096430543809 ], [ 127.018751668192792, 37.577526899392176 ], [ 127.018005509257804, 37.5780581823266 ], [ 127.017604519423685, 37.579688801442963 ] ] ] } }
]
}
