{
"type": "FeatureCollection",
"name": "stations",
"crs": { "type": "name", "properties": { "name": "urn:ogc:def:crs:OGC:1.3:CRS84" } },
"features": [
{ "type": "Feature", "properties": { "name": "종로5가", "line": "1호선", "in_gu": false }, "geometry": { "type": "Point", "coordinates": [ 127.001849, 37.570926 ] } },
{ "type": "Feature", "properties": { "name": "동대문", "line": "1호선", "in_gu": false }, "geometry": { "type": "Point", "coordinates": [ 127.01093, 37.571687 ] } },
{ "type": "Feature", "properties": { "name": "신설동", "line": "1호선", "in_gu": false }, "geometry": { "type": "Point", "coordinates": [ 127.024634, 37.576048 ] } },
{ "type": "Feature", "properties": { "name": "제기동", "line": "1호선", "in_gu": false }, "geometry": { "type": "Point", "coordinates": [ 127.034893, 37.578103 ] } },
{ "type": "Feature", "properties": { "name": "청량리(서울시립대입구)", "line": "1호선", "in_gu": false }, "geometry": { "type": "Point", "coordinates": [ 127.044585, 37.579956 ] } },
{ "type": "Feature", "properties": { "name": "동묘앞", "line": "1호선", "in_gu": false }, "geometry": { "type": "Point", "coordinates": [ 127.01648, 37.573197 ] } },
{ "type": "Feature", "properties": { "name": "동대문역사문화공원", "line": "2호선", "in_gu": false }, "geometry": { "type": "Point", "coordinates": [ 127.009054, 37.565613 ] } },
{ "type": "Feature", "properties": { "name": "신당", "line": "2호선", "in_gu": false }, "geometry": { "type": "Point", "coordinates": [ 127.019614, 37.56564 ] } },
{ "type": "Feature", "properties": { "name": "상왕십리", "line": "2호선", "in_gu": true }, "geometry": { "type": "Point", "coordinates": [ 127.029354, 37.564354 ] } },
{ "type": "Feature", "properties": { "name": "왕십리(성동구청)", "line": "2호선", "in_gu": true }, "geometry": { "type": "Point", "coordinates": [ 127.036954, 37.561238 ] } },
{ "type": "Feature", "properties": { "name": "한양대", "line": "2호선", "in_gu": true }, "geometry": { "type": "Point", "coordinates": [ 127.043655, 37.555273 ] } },
{ "type": "Feature", "properties": { "name": "뚝섬", "line": "2호선", "in_gu": true }, "geometry": { "type": "Point", "coordinates": [ 127.047367, 37.547184 ] } },
{ "type": "Feature", "properties": { "name": "성수", "line": "2호선", "in_gu": true }, "geometry": { "type": "Point", "coordinates": [ 127.055961, 37.544581 ] } },
{ "type": "Feature", "properties": { "name": "건대입구", "line": "2호선", "in_gu": false }, "geometry": { "type": "Point", "coordinates": [ 127.069191, 37.540373 ] } },
{ "type": "Feature", "properties": { "name": "용답", "line": "2호선", "in_gu": true }, "geometry": { "type": "Point", "coordinates": [ 127.050899, 37.561904 ] } },
{ "type": "Feature", "properties": { "name": "신답", "line": "2호선", "in_gu": true }, "geometry": { "type": "Point", "coordinates": [ 127.046481, 37.57004 ] } },
{ "type": "Feature", "properties": { "name": "신설동", "line": "2호선", "in_gu": false }, "geometry": { "type": "Point", "coordinates": [ 127.024932, 37.574747 ] } },
{ "type": "Feature", "properties": { "name": "용두(동대문구청)", "line": "2호선", "in_gu": false }, "geometry": { "type": "Point", "coordinates": [ 127.038091, 37.574028 ] } },
{ "type": "Feature", "properties": { "name": "동대입구", "line": "3호선", "in_gu": false }, "geometry": { "type": "Point", "coordinates": [ 127.005602, 37.559052 ] } },
{ "type": "Feature", "properties": { "name": "약수", "line": "3호선", "in_gu": false }, "geometry": { "type": "Point", "coordinates": [ 127.010541, 37.554867 ] } },
{ "type": "Feature", "properties": { "name": "금호", "line": "3호선", "in_gu": true }, "geometry": { "type": "Point", "coordinates": [ 127.015872, 37.548034 ] } },
{ "type": "Feature", "properties": { "name": "옥수", "line": "3호선", "in_gu": true }, "geometry": { "type": "Point", "coordinates": [ 127.017269, 37.541684 ] } },
{ "type": "Feature", "properties": { "name": "압구정", "line": "3호선", "in_gu": false }, "geometry": { "type": "Point", "coordinates": [ 127.028461, 37.527072 ] } },
{ "type": "Feature", "properties": { "name": "미아사거리", "line": "4호선", "in_gu": false }, "geometry": { "type": "Point", "coordinates": [ 127.030053, 37.613292 ] } },
{ "type": "Feature", "properties": { "name": "길음", "line": "4호선", "in_gu": true }, "geometry": { "type": "Point", "coordinates": [ 127.025053, 37.603407 ] } },
{ "type": "Feature", "properties": { "name": "성신여대입구(돈암)", "line": "4호선", "in_gu": true }, "geometry": { "type": "Point", "coordinates": [ 127.016441, 37.592612 ] } },
{ "type": "Feature", "properties": { "name": "한성대입구(삼선교)", "line": "4호선", "in_gu": true }, "geometry": { "type": "Point", "coordinates": [ 127.006221, 37.588458 ] } },
{ "type": "Feature", "properties": { "name": "혜화", "line": "4호선", "in_gu": false }, "geometry": { "type": "Point", "coordinates": [ 127.001844, 37.582336 ] } },
{ "type": "Feature", "properties": { "name": "동대문", "line": "4호선", "in_gu": false }, "geometry": { "type": "Point", "coordinates": [ 127.009287, 37.57093 ] } },
{ "type": "Feature", "properties": { "name": "동대문역사문화공원", "line": "4호선", "in_gu": false }, "geometry": { "type": "Point", "coordinates": [ 127.007885, 37.565133 ] } },
{ "type": "Feature", "properties": { "name": "한남", "line": "경원선", "in_gu": false }, "geometry": { "type": "Point", "coordinates": [ 127.009169, 37.52943 ] } },
{ "type": "Feature", "properties": { "name": "옥수", "line": "경원선", "in_gu": true }, "geometry": { "type": "Point", "coordinates": [ 127.018672, 37.540446 ] } },
{ "type": "Feature", "properties": { "name": "응봉", "line": "경원선", "in_gu": true }, "geometry": { "type": "Point", "coordinates": [ 127.034538, 37.549946 ] } },
{ "type": "Feature", "properties": { "name": "왕십리(성동구청)", "line": "경원선", "in_gu": true }, "geometry": { "type": "Point", "coordinates": [ 127.038352, 37.561827 ] } },
{ "type": "Feature", "properties": { "name": "청량리(서울시립대입구)", "line": "경원선", "in_gu": false }, "geometry": { "type": "Point", "coordinates": [ 127.0483, 37.580759 ] } },
{ "type": "Feature", "properties": { "name": "회기", "line": "중앙선", "in_gu": false }, "geometry": { "type": "Point", "coordinates": [ 127.057583, 37.58946 ] } },
{ "type": "Feature", "properties": { "name": "외대앞", "line": "경원선", "in_gu": false }, "geometry": { "type": "Point", "coordinates": [ 127.063549, 37.596073 ] } },
{ "type": "Feature", "properties": { "name": "신이문", "line": "경원선", "in_gu": false }, "geometry": { "type": "Point", "coordinates": [ 127.067325, 37.601854 ] } },
{ "type": "Feature", "properties": { "name": "석계", "line": "경원선", "in_gu": false }, "geometry": { "type": "Point", "coordinates": [ 127.065934, 37.614532 ] } },
{ "type": "Feature", "properties": { "name": "광운대", "line": "경원선", "in_gu": false }, "geometry": { "type": "Point", "coordinates": [ 127.061835, 37.623632 ] } },
{ "type": "Feature", "properties": { "name": "월계", "line": "경원선", "in_gu": false }, "geometry": { "type": "Point", "coordinates": [ 127.058831, 37.633212 ] } },
{ "type": "Feature", "properties": { "name": "중랑", "line": "중앙선", "in_gu": false }, "geometry": { "type": "Point", "coordinates": [ 127.076116, 37.594917 ] } },
{ "type": "Feature", "properties": { "name": "서울숲", "line": "분당선", "in_gu": true }, "geometry": { "type": "Point", "coordinates": [ 127.044707, 37.543617 ] } },
{ "type": "Feature", "properties": { "name": "압구정로데오", "line": "분당선", "in_gu": false }, "geometry": { "type": "Point", "coordinates": [ 127.040534, 37.527381 ] } },
{ "type": "Feature", "properties": { "name": "동대문역사문화공원", "line": "5호선", "in_gu": false }, "geometry": { "type": "Point", "coordinates": [ 127.005353, 37.564665 ] } },
{ "type": "Feature", "properties": { "name": "청구", "line": "5호선", "in_gu": false }, "geometry": { "type": "Point", "coordinates": [ 127.013639, 37.560276 ] } },
{ "type": "Feature", "properties": { "name": "신금호", "line": "5호선", "in_gu": true }, "geometry": { "type": "Point", "coordinates": [ 127.020331, 37.554548 ] } },
{ "type": "Feature", "properties": { "name": "행당", "line": "5호선", "in_gu": true }, "geometry": { "type": "Point", "coordinates": [ 127.029476, 37.557322 ] } },
{ "type": "Feature", "properties": { "name": "왕십리(성동구청)", "line": "5호선", "in_gu": true }, "geometry": { "type": "Point", "coordinates": [ 127.037059, 37.56184 ] } },
{ "type": "Feature", "properties": { "name": "마장", "line": "5호선", "in_gu": true }, "geometry": { "type": "Point", "coordinates": [ 127.042973, 37.5661 ] } },
{ "type": "Feature", "properties": { "name": "답십리", "line": "5호선", "in_gu": true }, "geometry": { "type": "Point", "coordinates": [ 127.052704, 37.566747 ] } },
{ "type": "Feature", "properties": { "name": "장한평", "line": "5호선", "in_gu": false }, "geometry": { "type": "Point", "coordinates": [ 127.064623, 37.56144 ] } },
{ "type": "Feature", "properties": { "name": "군자(능동)", "line": "5호선", "in_gu": false }, "geometry": { "type": "Point", "coordinates": [ 127.079577, 37.557088 ] } },
{ "type": "Feature", "properties": { "name": "이태원", "line": "6호선", "in_gu": false }, "geometry": { "type": "Point", "coordinates": [ 126.994302, 37.534488 ] } },
{ "type": "Feature", "properties": { "name": "한강진", "line": "6호선", "in_gu": false }, "geometry": { "type": "Point", "coordinates": [ 127.001725, 37.539631 ] } },
{ "type": "Feature", "properties": { "name": "버티고개", "line": "6호선", "in_gu": false }, "geometry": { "type": "Point", "coordinates": [ 127.007055, 37.548013 ] } },
{ "type": "Feature", "properties": { "name": "약수", "line": "6호선", "in_gu": false }, "geometry": { "type": "Point", "coordinates": [ 127.010358, 37.554263 ] } },
{ "type": "Feature", "properties": { "name": "청구", "line": "6호선", "in_gu": false }, "geometry": { "type": "Point", "coordinates": [ 127.013986, 37.560608 ] } },
{ "type": "Feature", "properties": { "name": "신당", "line": "6호선", "in_gu": false }, "geometry": { "type": "Point", "coordinates": [ 127.016146, 37.566154 ] } },
{ "type": "Feature", "properties": { "name": "동묘앞", "line": "6호선", "in_gu": false }, "geometry": { "type": "Point", "coordinates": [ 127.015653, 37.572279 ] } },
{ "type": "Feature", "properties": { "name": "창신", "line": "6호선", "in_gu": false }, "geometry": { "type": "Point", "coordinates": [ 127.015241, 37.579661 ] } },
{ "type": "Feature", "properties": { "name": "보문", "line": "6호선", "in_gu": true }, "geometry": { "type": "Point", "coordinates": [ 127.019351, 37.585274 ] } },
{ "type": "Feature", "properties": { "name": "안암(고대병원앞)", "line": "6호선", "in_gu": true }, "geometry": { "type": "Point", "coordinates": [ 127.029005, 37.586272 ] } },
{ "type": "Feature", "properties": { "name": "고려대(종암)", "line": "6호선", "in_gu": true }, "geometry": { "type": "Point", "coordinates": [ 127.036296, 37.590508 ] } },
{ "type": "Feature", "properties": { "name": "월곡(동덕여대)", "line": "6호선", "in_gu": true }, "geometry": { "type": "Point", "coordinates": [ 127.041518, 37.601948 ] } },
{ "type": "Feature", "properties": { "name": "상월곡(한국과학기술연구원)", "line": "6호선", "in_gu": true }, "geometry": { "type": "Point", "coordinates": [ 127.048491, 37.606377 ] } },
{ "type": "Feature", "properties": { "name": "돌곶이", "line": "6호선", "in_gu": true }, "geometry": { "type": "Point", "coordinates": [ 127.056431, 37.610537 ] } },
{ "type": "Feature", "properties": { "name": "석계", "line": "6호선", "in_gu": false }, "geometry": { "type": "Point", "coordinates": [ 127.065595, 37.614872 ] } },
{ "type": "Feature", "properties": { "name": "태릉입구", "line": "6호선", "in_gu": false }, "geometry": { "type": "Point", "coordinates": [ 127.074735, 37.617338 ] } },
{ "type": "Feature", "properties": { "name": "화랑대(서울여대입구)", "line": "6호선", "in_gu": false }, "geometry": { "type": "Point", "coordinates": [ 127.084689, 37.620064 ] } },
{ "type": "Feature", "properties": { "name": "공릉(서울과학기술대)", "line": "7호선", "in_gu": false }, "geometry": { "type": "Point", "coordinates": [ 127.072896, 37.625742 ] } },
{ "type": "Feature", "properties": { "name": "태릉입구", "line": "7호선", "in_gu": false }, "geometry": { "type": "Point", "coordinates": [ 127.075397, 37.618294 ] } },
{ "type": "Feature", "properties": { "name": "먹골", "line": "7호선", "in_gu": false }, "geometry": { "type": "Point", "coordinates": [ 127.077725, 37.610637 ] } },
{ "type": "Feature", "properties": { "name": "중화", "line": "7호선", "in_gu": false }, "geometry": { "type": "Point", "coordinates": [ 127.079264, 37.602545 ] } },
{ "type": "Feature", "properties": { "name": "중곡", "line": "7호선", "in_gu": false }, "geometry": { "type": "Point", "coordinates": [ 127.08432, 37.565923 ] } },
{ "type": "Feature", "properties": { "name": "군자(능동)", "line": "7호선", "in_gu": false }, "geometry": { "type": "Point", "coordinates": [ 127.079338, 37.556897 ] } },
{ "type": "Feature", "properties": { "name": "어린이대공원(세종대)", "line": "7호선", "in_gu": false }, "geometry": { "type": "Point", "coordinates": [ 127.074658, 37.548014 ] } },
{ "type": "Feature", "properties": { "name": "건대입구", "line": "7호선", "in_gu": false }, "geometry": { "type": "Point", "coordinates": [ 127.071011, 37.540786 ] } },
{ "type": "Feature", "properties": { "name": "뚝섬유원지", "line": "7호선", "in_gu": false }, "geometry": { "type": "Point", "coordinates": [ 127.066704, 37.53154 ] } },
{ "type": "Feature", "properties": { "name": "청담", "line": "7호선", "in_gu": false }, "geometry": { "type": "Point", "coordinates": [ 127.05335, 37.519365 ] } },
{ "type": "Feature", "properties": { "name": "화계", "line": "우이신설선", "in_gu": false }, "geometry": { "type": "Point", "coordinates": [ 127.017511, 37.634133 ] } },
{ "type": "Feature", "properties": { "name": "삼양", "line": "우이신설선", "in_gu": false }, "geometry": { "type": "Point", "coordinates": [ 127.018106, 37.626914 ] } },
{ "type": "Feature", "properties": { "name": "삼양사거리", "line": "우이신설선", "in_gu": false }, "geometry": { "type": "Point", "coordinates": [ 127.020473, 37.621337 ] } },
{ "type": "Feature", "properties": { "name": "솔샘", "line": "우이신설선", "in_gu": false }, "geometry": { "type": "Point", "coordinates": [ 127.013626, 37.620238 ] } },
{ "type": "Feature", "properties": { "name": "북한산보국문", "line": "우이신설선", "in_gu": true }, "geometry": { "type": "Point", "coordinates": [ 127.008251, 37.612072 ] } },
{ "type": "Feature", "properties": { "name": "정릉", "line": "우이신설선", "in_gu": true }, "geometry": { "type": "Point", "coordinates": [ 127.013396, 37.603133 ] } },
{ "type": "Feature", "properties": { "name": "성신여대입구(돈암)", "line": "우이신설선", "in_gu": true }, "geometry": { "type": "Point", "coordinates": [ 127.016516, 37.592467 ] } },
{ "type": "Feature", "properties": { "name": "보문", "line": "우이신설선", "in_gu": true }, "geometry": { "type": "Point", "coordinates": [ 127.019381, 37.585286 ] } },
{ "type": "Feature", "properties": { "name": "신설동", "line": "우이신설선", "in_gu": false }, "geometry": { "type": "Point", "coordinates": [ 127.023242, 37.576095 ] } }
]
}
